start=new Date('2021-10-12T00:00:00.000Z').valueOf();
sats=[{"FILE":"3157563","MEAN_MOTION_DDOT":"0.0000000000000","ELEMENT_SET_NO":"999","PERIOD":"94.893","TLE_LINE2":"2 44238  52.9928 176.1984 0001928  94.5874 265.5340 15.17495032130366","TIME_SYSTEM":"UTC","APOAPSIS":"514.745","BSTAR":"0.00069657000000","EPHEMERIS_TYPE":"0","CLASSIFICATION_TYPE":"U","OBJECT_ID":"2019-029D","RA_OF_ASC_NODE":"176.1984","ECCENTRICITY":"0.00019280","EPOCH":"2021-10-11T23:09:24.534720","LAUNCH_DATE":"2019-05-24","MEAN_MOTION":"15.17495032","SITE":"AFETR","OBJECT_NAME":"STARLINK-24","SEMIMAJOR_AXIS":"6891.551","REV_AT_EPOCH":"13036","REF_FRAME":"TEME","OBJECT_TYPE":"PAYLOAD","RCS_SIZE":"LARGE","MEAN_ANOMALY":"265.5340","PERIAPSIS":"512.088","DECAY_DATE":null,"NORAD_CAT_ID":"44238","COUNTRY_CODE":"US","TLE_LINE1":"1 44238U 19029D   21284.96486730  .00013844  00000-0  69657-3 0  9998","MEAN_MOTION_DOT":"0.00013844","GP_ID":"186926964","MEAN_ELEMENT_THEORY":"SGP4","CENTER_NAME":"EARTH","INCLINATION":"52.9928","ARG_OF_PERICENTER":"94.5874"},{"OBJECT_TYPE":"PAYLOAD","REF_FRAME":"TEME","REV_AT_EPOCH":"13146","SEMIMAJOR_AXIS":"6874.813","OBJECT_NAME":"STARLINK-61","LAUNCH_DATE":"2019-05-24","SITE":"AFETR","MEAN_MOTION":"15.23040505","RA_OF_ASC_NODE":"146.6478","EPOCH":"2021-10-11T21:03:46.760256","ECCENTRICITY":"0.00071650","CLASSIFICATION_TYPE":"U","OBJECT_ID":"2019-029Q","BSTAR":"0.00048333000000","EPHEMERIS_TYPE":"0","APOAPSIS":"501.604","TIME_SYSTEM":"UTC","PERIOD":"94.548","ELEMENT_SET_NO":"999","TLE_LINE2":"2 44249  52.9882 146.6478 0007165  85.7823 274.3991 15.23040505131462","MEAN_MOTION_DDOT":"0.0000000000000","FILE":"3157563","ARG_OF_PERICENTER":"85.7823","INCLINATION":"52.9882","CENTER_NAME":"EARTH","MEAN_ELEMENT_THEORY":"SGP4","GP_ID":"186928215","TLE_LINE1":"1 44249U 19029Q   21284.87762454  .00011215  00000-0  48333-3 0  9998","MEAN_MOTION_DOT":"0.00011215","NORAD_CAT_ID":"44249","COUNTRY_CODE":"US","PERIAPSIS":"491.752","DECAY_DATE":null,"MEAN_ANOMALY":"274.3991","RCS_SIZE":"LARGE"},{"OBJECT_NAME":"STARLINK-71","SEMIMAJOR_AXIS":"6884.888","REV_AT_EPOCH":"13099","REF_FRAME":"TEME","OBJECT_TYPE":"PAYLOAD","MEAN_MOTION_DDOT":"0.0000000000000","FILE":"3157563","ELEMENT_SET_NO":"999","PERIOD":"94.756","TLE_LINE2":"2 44252  52.9974 176.5228 0001430  99.8944 260.2211 15.19698673130998","TIME_SYSTEM":"UTC","APOAPSIS":"507.737","BSTAR":"0.00074002000000","EPHEMERIS_TYPE":"0","CLASSIFICATION_TYPE":"U","OBJECT_ID":"2019-029T","RA_OF_ASC_NODE":"176.5228","ECCENTRICITY":"0.00014300","EPOCH":"2021-10-11T21:54:06.503328","LAUNCH_DATE":"2019-05-24","SITE":"AFETR","MEAN_MOTION":"15.19698673","PERIAPSIS":"505.768","DECAY_DATE":null,"NORAD_CAT_ID":"44252","COUNTRY_CODE":"US","TLE_LINE1":"1 44252U 19029T   21284.91257527  .00015712  00000-0  74002-3 0  9995","MEAN_MOTION_DOT":"0.00015712","GP_ID":"186927966","MEAN_ELEMENT_THEORY":"SGP4","INCLINATION":"52.9974","CENTER_NAME":"EARTH","ARG_OF_PERICENTER":"99.8944","RCS_SIZE":"LARGE","MEAN_ANOMALY":"260.2211"},{"REF_FRAME":"TEME","OBJECT_TYPE":"PAYLOAD","OBJECT_NAME":"STARLINK-43","SEMIMAJOR_AXIS":"6787.265","REV_AT_EPOCH":"13393","EPHEMERIS_TYPE":"0","BSTAR":"0.00151950000000","OBJECT_ID":"2019-029Y","CLASSIFICATION_TYPE":"U","ECCENTRICITY":"0.00031870","EPOCH":"2021-10-11T14:31:15.259872","RA_OF_ASC_NODE":"43.9605","MEAN_MOTION":"15.52603502","SITE":"AFETR","LAUNCH_DATE":"2019-05-24","MEAN_MOTION_DDOT":"0.0000000000000","FILE":"3157332","TLE_LINE2":"2 44257  52.9978  43.9605 0003187 338.0359  22.0512 15.52603502133931","PERIOD":"92.747","ELEMENT_SET_NO":"999","TIME_SYSTEM":"UTC","APOAPSIS":"411.293","MEAN_ELEMENT_THEORY":"SGP4","CENTER_NAME":"EARTH","INCLINATION":"52.9978","ARG_OF_PERICENTER":"338.0359","DECAY_DATE":null,"PERIAPSIS":"406.967","COUNTRY_CODE":"US","NORAD_CAT_ID":"44257","MEAN_MOTION_DOT":"0.00095755","TLE_LINE1":"1 44257U 19029Y   21284.60503773  .00095755  00000-0  15195-2 0  9995","GP_ID":"186901323","MEAN_ANOMALY":"22.0512","RCS_SIZE":"LARGE"},{"REV_AT_EPOCH":"13168","SEMIMAJOR_AXIS":"6837.974","OBJECT_NAME":"STARLINK-80","REF_FRAME":"TEME","OBJECT_TYPE":"PAYLOAD","TIME_SYSTEM":"UTC","APOAPSIS":"461.411","FILE":"3157563","MEAN_MOTION_DDOT":"0.0000000000000","TLE_LINE2":"2 44282  53.0190  93.4005 0002298 286.5129  73.5619 15.35364774131680","ELEMENT_SET_NO":"999","PERIOD":"93.789","EPOCH":"2021-10-11T19:37:16.831488","ECCENTRICITY":"0.00022980","RA_OF_ASC_NODE":"93.4005","SITE":"AFETR","MEAN_MOTION":"15.35364774","LAUNCH_DATE":"2019-05-24","EPHEMERIS_TYPE":"0","BSTAR":"0.00105280000000","OBJECT_ID":"2019-029AZ","CLASSIFICATION_TYPE":"U","MEAN_MOTION_DOT":"0.00036484","TLE_LINE1":"1 44282U 19029AZ  21284.81755592  .00036484  00000-0  10528-2 0  9993","GP_ID":"186927464","DECAY_DATE":null,"PERIAPSIS":"458.268","COUNTRY_CODE":"US","NORAD_CAT_ID":"44282","INCLINATION":"53.0190","CENTER_NAME":"EARTH","ARG_OF_PERICENTER":"286.5129","MEAN_ELEMENT_THEORY":"SGP4","RCS_SIZE":"LARGE","MEAN_ANOMALY":"73.5619"},{"OBJECT_TYPE":"PAYLOAD","REF_FRAME":"TEME","OBJECT_NAME":"STARLINK-1007","REV_AT_EPOCH":"10601","SEMIMAJOR_AXIS":"6925.346","OBJECT_ID":"2019-074A","CLASSIFICATION_TYPE":"U","EPHEMERIS_TYPE":"0","BSTAR":"0.00011546000000","MEAN_MOTION":"15.06400858","SITE":"AFETR","LAUNCH_DATE":"2019-11-11","EPOCH":"2021-10-11T05:18:39.625344","ECCENTRICITY":"0.00018980","RA_OF_ASC_NODE":"216.3313","TLE_LINE2":"2 44713  53.0552 216.3313 0001898  62.5855 297.5327 15.06400858106017","ELEMENT_SET_NO":"999","PERIOD":"95.592","MEAN_MOTION_DDOT":"0.0000000000000","FILE":"3157068","APOAPSIS":"548.525","TIME_SYSTEM":"UTC","MEAN_ELEMENT_THEORY":"SGP4","ARG_OF_PERICENTER":"62.5855","CENTER_NAME":"EARTH","INCLINATION":"53.0552","COUNTRY_CODE":"US","NORAD_CAT_ID":"44713","DECAY_DATE":null,"PERIAPSIS":"545.896","GP_ID":"186892802","MEAN_MOTION_DOT":"0.00001439","TLE_LINE1":"1 44713U 19074A   21284.22129196  .00001439  00000-0  11546-3 0  9996","MEAN_ANOMALY":"297.5327","RCS_SIZE":"LARGE"},{"REF_FRAME":"TEME","OBJECT_TYPE":"PAYLOAD","OBJECT_NAME":"STARLINK-1008","REV_AT_EPOCH":"10606","SEMIMAJOR_AXIS":"6925.349","EPHEMERIS_TYPE":"0","BSTAR":"0.00012564000000","OBJECT_ID":"2019-074B","CLASSIFICATION_TYPE":"U","ECCENTRICITY":"0.00016540","EPOCH":"2021-10-11T12:45:51.598080","RA_OF_ASC_NODE":"214.9016","SITE":"AFETR","MEAN_MOTION":"15.06399718","LAUNCH_DATE":"2019-11-11","FILE":"3157068","MEAN_MOTION_DDOT":"0.0000000000000","TLE_LINE2":"2 44714  53.0548 214.9016 0001654  77.2872 282.8302 15.06399718106066","PERIOD":"95.592","ELEMENT_SET_NO":"999","TIME_SYSTEM":"UTC","APOAPSIS":"548.360","MEAN_ELEMENT_THEORY":"SGP4","INCLINATION":"53.0548","CENTER_NAME":"EARTH","ARG_OF_PERICENTER":"77.2872","DECAY_DATE":null,"PERIAPSIS":"546.069","COUNTRY_CODE":"US","NORAD_CAT_ID":"44714","MEAN_MOTION_DOT":"0.00001590","TLE_LINE1":"1 44714U 19074B   21284.53184720  .00001590  00000-0  12564-3 0  9994","GP_ID":"186893053","MEAN_ANOMALY":"282.8302","RCS_SIZE":"LARGE"},{"TIME_SYSTEM":"UTC","APOAPSIS":"548.453","FILE":"3157238","MEAN_MOTION_DDOT":"0.0000000000000","TLE_LINE2":"2 44715  53.0544 214.9495 0001781  62.5851 297.5319 15.06398048106223","PERIOD":"95.592","ELEMENT_SET_NO":"999","EPOCH":"2021-10-11T12:29:56.686272","ECCENTRICITY":"0.00017810","RA_OF_ASC_NODE":"214.9495","SITE":"AFETR","MEAN_MOTION":"15.06398048","LAUNCH_DATE":"2019-11-11","EPHEMERIS_TYPE":"0","BSTAR":"0.00007397500000","OBJECT_ID":"2019-074C","CLASSIFICATION_TYPE":"U","REV_AT_EPOCH":"10622","SEMIMAJOR_AXIS":"6925.355","OBJECT_NAME":"STARLINK-1009","REF_FRAME":"TEME","OBJECT_TYPE":"PAYLOAD","RCS_SIZE":"LARGE","MEAN_ANOMALY":"297.5319","MEAN_MOTION_DOT":"0.00000820","TLE_LINE1":"1 44715U 19074C   21284.52079498  .00000820  00000-0  73975-4 0  9998","GP_ID":"186900985","DECAY_DATE":null,"PERIAPSIS":"545.986","COUNTRY_CODE":"US","NORAD_CAT_ID":"44715","CENTER_NAME":"EARTH","INCLINATION":"53.0544","ARG_OF_PERICENTER":"62.5851","MEAN_ELEMENT_THEORY":"SGP4"},{"REF_FRAME":"TEME","OBJECT_TYPE":"PAYLOAD","OBJECT_NAME":"STARLINK-1010","SEMIMAJOR_AXIS":"6925.359","REV_AT_EPOCH":"10604","EPHEMERIS_TYPE":"0","BSTAR":"0.00002386700000","OBJECT_ID":"2019-074D","CLASSIFICATION_TYPE":"U","EPOCH":"2021-10-11T12:56:28.709088","ECCENTRICITY":"0.00016040","RA_OF_ASC_NODE":"214.8566","SITE":"AFETR","MEAN_MOTION":"15.06396710","LAUNCH_DATE":"2019-11-11","MEAN_MOTION_DDOT":"0.0000000000000","FILE":"3157068","TLE_LINE2":"2 44716  53.0561 214.8566 0001604  64.7029 295.4126 15.06396710106043","PERIOD":"95.592","ELEMENT_SET_NO":"999","TIME_SYSTEM":"UTC","APOAPSIS":"548.334","MEAN_ELEMENT_THEORY":"SGP4","INCLINATION":"53.0561","CENTER_NAME":"EARTH","ARG_OF_PERICENTER":"64.7029","DECAY_DATE":null,"PERIAPSIS":"546.113","COUNTRY_CODE":"US","NORAD_CAT_ID":"44716","MEAN_MOTION_DOT":"0.00000074","TLE_LINE1":"1 44716U 19074D   21284.53922117  .00000074  00000-0  23867-4 0  9991","GP_ID":"186894541","MEAN_ANOMALY":"295.4126","RCS_SIZE":"LARGE"},{"GP_ID":"186927505","TLE_LINE1":"1 44717U 19074E   21284.60373360  .00000173  00000-0  30494-4 0  9994","MEAN_MOTION_DOT":"0.00000173","NORAD_CAT_ID":"44717","COUNTRY_CODE":"US","PERIAPSIS":"545.997","DECAY_DATE":null,"ARG_OF_PERICENTER":"70.5118","INCLINATION":"53.0535","CENTER_NAME":"EARTH","MEAN_ELEMENT_THEORY":"SGP4","RCS_SIZE":"LARGE","MEAN_ANOMALY":"289.6065","REV_AT_EPOCH":"10579","SEMIMAJOR_AXIS":"6925.377","OBJECT_NAME":"STARLINK-1011","OBJECT_TYPE":"PAYLOAD","REF_FRAME":"TEME","APOAPSIS":"548.488","TIME_SYSTEM":"UTC","PERIOD":"95.593","ELEMENT_SET_NO":"999","TLE_LINE2":"2 44717  53.0535 234.5729 0001798  70.5118 289.6065 15.06390563105791","FILE":"3157563","MEAN_MOTION_DDOT":"0.0000000000000","LAUNCH_DATE":"2019-11-11","MEAN_MOTION":"15.06390563","SITE":"AFETR","RA_OF_ASC_NODE":"234.5729","ECCENTRICITY":"0.00017980","EPOCH":"2021-10-11T14:29:22.583040","CLASSIFICATION_TYPE":"U","OBJECT_ID":"2019-074E","BSTAR":"0.00003049400000","EPHEMERIS_TYPE":"0"}];
